{
    "links": {
        "self": "http://www.neowsapp.com/rest/v1/neo/3759291?api_key=iIulBulltgU6a56xZRHN4H3l9WmuAYTsLGpBGhQ2"
    },
    "id": "3759291",
    "neo_reference_id": "3759291",
    "name": "(2016 RK20)",
    "designation": "2016 RK20",
    "nasa_jpl_url": "http://ssd.jpl.nasa.gov/sbdb.cgi?sstr=3759291",
    "absolute_magnitude_h": 24.6,
    "estimated_diameter": {
        "kilometers": {
            "estimated_diameter_min": 0.0319561887,
            "estimated_diameter_max": 0.0714562102
        },
        "meters": {
            "estimated_diameter_min": 31.9561886721,
            "estimated_diameter_max": 71.4562101727
        },
        "miles": {
            "estimated_diameter_min": 0.0198566489,
            "estimated_diameter_max": 0.0444008168
        },
        "feet": {
            "estimated_diameter_min": 104.8431420431,
            "estimated_diameter_max": 234.436392583
        }
    },
    "is_potentially_hazardous_asteroid": false,
    "close_approach_data": [
        {
            "close_approach_date": "2007-08-27",
            "close_approach_date_full": "2007-Aug-27 16:39",
            "epoch_date_close_approach": 1188232740000,
            "relative_velocity": {
                "kilometers_per_second": "6.7123023468",
                "kilometers_per_hour": "24164.2884486038",
                "miles_per_hour": "15014.7491196338"
            },
            "miss_distance": {
                "astronomical": "0.1805531916",
                "lunar": "70.2351915324",
                "kilometers": "27010372.885061892",
                "miles": "16783467.4510504296"
            },
            "orbiting_body": "Earth"
        },
        {
            "close_approach_date": "2016-08-21",
            "close_approach_date_full": "2016-Aug-21 15:18",
            "epoch_date_close_approach": 1471792680000,
            "relative_velocity": {
                "kilometers_per_second": "5.5792748305",
                "kilometers_per_hour": "20085.3893899541",
                "miles_per_hour": "12480.2798684412"
            },
            "miss_distance": {
                "astronomical": "0.1311594118",
                "lunar": "51.0210111902",
                "kilometers": "19621168.635732866",
                "miles": "12192028.8383549108"
            },
            "orbiting_body": "Earth"
        },
        {
            "close_approach_date": "2025-08-15",
            "close_approach_date_full": "2025-Aug-15 02:14",
            "epoch_date_close_approach": 1755224040000,
            "relative_velocity": {
                "kilometers_per_second": "8.6269621318",
                "kilometers_per_hour": "31057.0636746297",
                "miles_per_hour": "19297.6515927164"
            },
            "miss_distance": {
                "astronomical": "0.3014374508",
                "lunar": "117.2591683612",
                "kilometers": "45094400.577909796",
                "miles": "28020361.1976993448"
            },
            "orbiting_body": "Earth"
        }
    ],
    "orbital_data": {
        "orbit_id": "5",
        "orbit_determination_date": "2018-01-18 06:52:49",
        "first_observation_date": "2016-09-08",
        "last_observation_date": "2016-10-07",
        "data_arc_in_days": 29,
        "observations_used": 22,
        "orbit_uncertainty": "7",
        "minimum_orbit_intersection": ".119164",
        "jupiter_tisserand_invariant": "4.105",
        "epoch_osculation": "2459000.5",
        "eccentricity": ".3406608011030189",
        "semi_major_axis": "1.712665509998087",
        "inclination": "8.525839391742522",
        "ascending_node_longitude": "154.3770310835821",
        "orbital_period": "818.6669437272266",
        "perihelion_distance": "1.129227505340628",
        "perihelion_argument": "175.4439903352322",
        "aphelion_distance": "2.296103514655546",
        "perihelion_time": "2459257.500703837158",
        "mean_anomaly": "246.9866994260808",
        "mean_motion": ".4397392648602521",
        "equinox": "J2000",
        "orbit_class": {
            "orbit_class_type": "AMO",
            "orbit_class_description": "Near-Earth asteroid orbits similar to that of 1221 Amor",
            "orbit_class_range": "1.017 AU < q (perihelion) < 1.3 AU"
        }
    },
    "is_sentry_object": false
}